# Made by eph2tle, compiled Dec 17 2024 20:30:40
# Run at Sun Dec 22 14:51:58 2024
#
# H 31.2    (from optical astrometry)
# Max error 0.02
#
#    The following TLEs (Two-Line Elements) were generated by fitting
# a numerically-integrated ephemeris,  based on the orbit given below,
# to the SDP4/SGP4 models.  Each TLE is good for the interval between
# its epoch and the epoch of the subsequent TLE (usually one day).
# The maximum deviation between the numerically integrated ephemerides
# and the TLE-based ephemeris, in kilometers,  is given for each TLE
# as the "worst residual".
#
#    This fitting is done using the 'eph2tle' code packaged with Find_Orb.
# The code has details on how the TLEs were computed :
#
#    https://github.com/Bill-Gray/find_orb/eph2tle.cpp
#
#    Be warned:  the error given is that between the numerically
# integrated ephems and the TLE model.  There will usually be at
# least some additional difference between the ephems and the actual
# motion of the satellite,  especially if the ephemerides are based
# on a short arc.  If the following orbital elements say something
# like "[based on] 10 observations 2015 Jan. 1-13",  and the TLEs
# are for 2015 May,  the extrapolation may be tenuous at best.  If
# your application requires a specific level of accuracy,  you may
# want to contact me;  I can give you some idea as to the fit of the
# underlying data (and possibly TLEs based on newer data).
#
#   You can usually find the underlying observational data,  and the
# fitted orbit,  residuals,  ephemerides,  and sometimes some comments
# about the object,  among the pages listed at
#
#    https://www.projectpluto.com/pluto/mpecs/pseudo.htm
#
#    WARNING:  for this object,  "normal" TLEs cannot be fitted.  (This
# usually means an object with an hyperbolic or nearly-parabolic orbit.)
# For this and similar cases,   an alternative model is used,  in which
# most of the traditional TLE data is replaced by six signed 8-digit hex
# numbers.  These six numbers are a state vector,  numerically integrated
# using a simplified force model.  This is necessary for objects at L2 or
# L1,  and sometimes for objects in high orbits where the SDP4/SGP4 model
# fails.  Some documentation is in 'get_el.cpp' in the source code at
# https://www.github.com/Bill-Gray/sat_code ; look for 'hex' in that file,
# with the actual integration done in 'sdp4.cpp'.  But be aware:  it's my
# own extension,  doesn't work with other code,  and is therefore used
# only when necessary.
#
#    Also,  if you use a TLE outside the "correct" time range (between
# its MJD and that of the next TLE),  all bets are off.  I've carefully
# computed and minimized the worst error over the "correct" time frame,
# but the ephemeris may (or may not) diverge wildly outside of it.
#
# Ephem range: 60676.000000 60827.000000 1.000000
# Created from Horizons data by 'jpl2mpc', ver Oct 20 2024, at Sun Dec 22 19:51:09 2024 UTC
# API VERSION: 1.2
# API SOURCE: NASA/JPL Horizons API
#
# *******************************************************************************
#  Revised: Dec 06, 2024             Gaia Observatory                     -139479
#                                http://sci.esa.int/gaia/
#
#  NOTE: Science observations to end 2025-Jan-25 due to decreasing attitude
#   control propellant. After a few weeks of engineering tests, Gaia will leave
#   its orbit around L2 and be placed in a heliocentric disposal orbit.
#
#  BACKGROUND:
#   Gaia is designed and operated by the European Space Agency. It launched
#   December 19, 2013 @ 09:12 UTC on a Soyuz launcher from Kourou, French Guiana.
#
#   On 2014-Jan-08, it arrived at its operational Lissajous orbit around the
#   gravitationally stable Earth-Sun Lagrange-point L2, roughly 1.5 million km
#   from Earth in the direction opposite the Sun.  The orbit is not shadowed by
#   Earth eclipses. The orbit period is about 180 days; the size of the orbit
#   is typically 340,000 x 90,000 km.
#
#  MISSION:
#   Gaia's 5-year primary mission is to ...
#
#     * Measure the positions of ~1 billion stars both in our Galaxy and other
#        members of the Local Group, with an accuracy down to 24 uas
#     * Perform spectral and photometric measurements of all objects
#     * Derive space velocities of the Galaxy's constituent stars using the
#        stellar distances and motions
#     * Create a three-dimensional structural map of the Galaxy
#
#   Additional expected results include extrasolar planet detection, brown dwarf
#   detection, solar system asteroid discoveries, supernova early detection, and
#   testing of Einstein's general relativity.
#
#  GAIA SPACECRAFT:
#   Spacecraft dry mass total       1392 kg
#   Propellant                       237 kg
#   Total launch mass               2029 kg
#   Power: 12.8 m^2 solar array provides up to 1910 Watts
#
#  SCIENCE INSTRUMENTS:
#   Single integrated instrument that comprises three major functions:
#   astrometry, photometry (320-1000 nm) and spectrometry (846-874 nm).
#
#   The three functions use two common telescopes and a shared focal plane,
#   with each function having a dedicated area on the large 0.5m x 1m CCD
#   detector array.
#
#  SPACECRAFT TRAJECTORY (from ESA 2024-Dec-03, predicts thereafter)
#   Trajectory name                                    Start         Stop
#   --------------------------------------------    -----------   -----------
#   ORB1_20241203_000001                            2013-Dec-19   2026-Sep-14
# *******************************************************************************
#
#
# *******************************************************************************
# Ephemeris / API_USER Sun Dec 22 11:48:29 2024 Pasadena, USA      / Horizons
# *******************************************************************************
# Target body name: Gaia (spacecraft) (-139479)     {source: gaia_merged}
# Center body name: Earth (399)                     {source: gaia_merged}
# Center-site name: BODY CENTER
# *******************************************************************************
# Start time      : A.D. 2025-Jan-01 00:00:00.0000 TDB
# Stop  time      : A.D. 2026-Jan-01 00:00:00.0000 TDB
# Step-size       : 3650 steps
# *******************************************************************************
# Center geodetic : 0.0, 0.0, 0.0                   {E-lon(deg),Lat(deg),Alt(km)}
# Center cylindric: 0.0, 0.0, 0.0                   {E-lon(deg),Dxy(km),Dz(km)}
# Center radii    : 6378.137, 6378.137, 6356.752 km {Equator_a, b, pole_c}
# Output units    : KM-S
# Calendar mode   : Mixed Julian/Gregorian
# Output type     : GEOMETRIC cartesian states
# Output format   : 2 (position and velocity)
# EOP file        : eop.241220.p250318
# EOP coverage    : DATA-BASED 1962-JAN-20 TO 2024-DEC-20. PREDICTS-> 2025-MAR-17
# Reference frame : Ecliptic of J2000.0
# *******************************************************************************
# JDTDB
#    X     Y     Z
#    VX    VY    VZ
# *******************************************************************************
#
# Elements after 21 Jan 2025 :
#
#    Perihelion 2025 Jan 15.712211 +/- 0.309 TT = 17:05:35.0 (JD 2460691.212211)
# Epoch 2025 Jan 24.0 TT = JDT 2460699.5   Earth MOID: 0.0094      Find_Orb
# M   7.631127041 +/- 0.28            (J2000 ecliptic)
# n   0.920767509 +/- 0.000167        Peri.  298.056361 +/- 1.3
# a   1.046412033 +/- 0.000127        Node   177.487857 +/- 1.0
# e   0.05084464 +/- 0.000156         Incl.    0.070345 +/- 0.0009
# P   1.070/390.971d         H 24.59  G  0.15   U  6.9
# q 0.993207588 +/- 4.35e-5    Q 1.099616477 +/- 0.000296
# From 22 observations 2025 Jan. 23-24 (14.5 hr); mean residual 0".097
#
# 1 NoradU COSPAR   Epoch.epoch     dn/dt/2  d2n/dt2/6 BSTAR    T El# C
# 2 NoradU Inclina RAAscNode Eccent  ArgPeri MeanAno  MeanMotion Rev# C

# Worst residual: 0.50 km
# MJD 60676.000000 (2025 Jan  1  0:00)
Gaia = 2013-074A = NORAD 39479
1 39479U 13074A   24366.99919926 -004RHIJU +00KZVVAR +006RS7G2H 25482
2 39479                          -0002EVVI -0000CULT -0000D6BF     05

# Worst residual: 0.45 km
# MJD 60677.000000 (2025 Jan  2  0:00)
Gaia = 2013-074A = NORAD 39479
1 39479U 13074A   25001.99919926 -005CBBL1 +00KWMU71 +006OM8D9H 25487
2 39479                          -0002EOPI -0000E8UB -0000D7J1     05

# Worst residual: 0.42 km
# MJD 60678.000000 (2025 Jan  3  0:00)
Gaia = 2013-074A = NORAD 39479
1 39479U 13074A   25002.99919926 -005X3N5S +00KT1JUN +006LFW2SH 25483
2 39479                          -0002EJEO -0000FOW2 -0000D9GR     00

# Worst residual: 0.41 km
# MJD 60679.000000 (2025 Jan  4  0:00)
Gaia = 2013-074A = NORAD 39479
1 39479U 13074A   25003.99919926 -006HUUGE +00KP3GWI +006I8Y1VH 25486
2 39479                          -0002EF8G -0000H7L2 -0000DCMW     06

# Worst residual: 0.44 km
# MJD 60680.000000 (2025 Jan  5  0:00)
Gaia = 2013-074A = NORAD 39479
1 39479U 13074A   25004.99919926 -0072L2WJ +00KKRVK8 +006F11S9H 25489
2 39479                          -0002EB5A -0000ITKB -0000DHG2     06

# Worst residual: 0.50 km
# MJD 60681.000000 (2025 Jan  6  0:00)
Gaia = 2013-074A = NORAD 39479
1 39479U 13074A   25005.99919926 -007NA7VT +00KG1XM9 +006BRRW5H 25489
2 39479                          -0002E5VG -0000KJ7A -0000DO5E     06

# Worst residual: 0.54 km
# MJD 60682.000000 (2025 Jan  7  0:00)
Gaia = 2013-074A = NORAD 39479
1 39479U 13074A   25006.99919926 -0087XT6R +00KAWQYG +0068GNJ0H 25480
2 39479                          -0002DY0T -0000MCK8 -0000DWTV     07

# Worst residual: 0.63 km
# MJD 60683.000000 (2025 Jan  8  0:00)
Gaia = 2013-074A = NORAD 39479
1 39479U 13074A   25007.99919926 -008SJ2EP +00K5BGCC +006537XVH 25482
2 39479                          -0002DM6J -0000O9DH -0000E7DO     01

# Worst residual: 0.71 km
# MJD 60684.000000 (2025 Jan  9  0:00)
Gaia = 2013-074A = NORAD 39479
1 39479U 13074A   25008.99919926 -009D0VAE +00JZ9A9H +0061N22WH 25485
2 39479                          -0002D51B -0000Q91U -0000EJII     05

